{"type":"FeatureCollection","features":[{"type":"Feature","id":1566151,"properties":{"name":"Kochbrunnenplatz","wikidata":"Q106632887","gender":null,"source":null,"details":null},"geometry":{"type":"MultiLineString","coordinates":[[[8.2429779,50.0866732],[8.2431155,50.0865613],[8.2431327,50.086515],[8.242623,50.0862167],[8.2420423,50.0858789],[8.2418984,50.0858716],[8.2417845,50.0858658],[8.241696,50.0858936],[8.241711,50.0859126],[8.2417287,50.0859434],[8.2417466,50.0859772],[8.2417546,50.0860068],[8.2417588,50.086041],[8.2417602,50.0860686],[8.2417602,50.0860911],[8.2417566,50.0861181],[8.2417506,50.0861442],[8.2417461,50.0861676],[8.2417394,50.0861911],[8.2417332,50.0862038],[8.241744,50.0862098],[8.2417445,50.0862301],[8.2417342,50.0862299],[8.2417342,50.0862479],[8.2417441,50.0862479],[8.2417435,50.0862756],[8.2417424,50.0863471],[8.2417433,50.0863776],[8.2418299,50.0864242],[8.2418298,50.0865591],[8.2417344,50.086607],[8.2417901,50.0866746],[8.2418064,50.0866926],[8.241842,50.0867373],[8.2419226,50.0867838],[8.2419362,50.086775],[8.242007,50.086729],[8.2422736,50.0865607],[8.24254,50.0863876],[8.2427117,50.086509],[8.2429066,50.0866263],[8.2429779,50.0866732]]]}},{"type":"Feature","id":4743158,"properties":{"name":"Schlossplatz","wikidata":"Q48463","gender":null,"source":null,"details":null},"geometry":{"type":"MultiLineString","coordinates":[[[8.2417406,50.0824491],[8.2415534,50.082245],[8.2415246,50.0822383],[8.2415252,50.0822286],[8.2415219,50.0822224],[8.241519,50.0822169],[8.2415085,50.082209],[8.2414922,50.0822034],[8.241481,50.0822021],[8.2414714,50.0822024],[8.2414535,50.0822068],[8.2414469,50.0822101],[8.2414385,50.0822167],[8.241412,50.0822102],[8.2410039,50.0823],[8.2410079,50.0823073],[8.240902,50.082331],[8.2408916,50.0823119],[8.2408551,50.08232],[8.2408656,50.0823393],[8.2407467,50.082366],[8.2407401,50.0823539],[8.2405745,50.0823913],[8.240565,50.0823959],[8.2405455,50.0823528],[8.240534,50.0823268],[8.2407901,50.0822453],[8.2409486,50.0821762],[8.2409746,50.0821535],[8.2410302,50.0821073],[8.2412117,50.0819488],[8.2412273,50.081937],[8.2412539,50.081908],[8.2413478,50.0817964],[8.2414909,50.081634],[8.2415272,50.0815818],[8.2415889,50.0816376],[8.2416607,50.081712],[8.2421409,50.0821988],[8.2421902,50.0822483],[8.2419763,50.0824321],[8.2421106,50.0825692],[8.2420483,50.0825953],[8.2419354,50.0826426],[8.2417974,50.0825011],[8.2417406,50.0824491]]]}},{"type":"Feature","id":6596065,"properties":{"name":"Dern'sches Gel\u00e4nde","wikidata":"Q1200302","gender":null,"source":null,"details":null},"geometry":{"type":"MultiLineString","coordinates":[[[8.2420489,50.0811028],[8.2420977,50.0805847],[8.242812,50.0806134],[8.2436159,50.0806579],[8.2436929,50.0806642],[8.2436117,50.081274],[8.2427179,50.0812533],[8.2420322,50.0812549],[8.2420009,50.0812385],[8.2420489,50.0811028]]]}},{"type":"Feature","id":6596066,"properties":{"name":"Marktplatz","wikidata":null,"gender":null,"source":null,"details":null},"geometry":{"type":"MultiLineString","coordinates":[[[8.2424754,50.0822374],[8.2421902,50.0822483],[8.2421409,50.0821988],[8.2423361,50.0821199],[8.2423239,50.0821074],[8.2424547,50.0820545],[8.2424884,50.0820608],[8.242513,50.0820507],[8.2425202,50.082034],[8.2425046,50.0820141],[8.2426243,50.0816921],[8.2426431,50.0816823],[8.2426497,50.081662],[8.2426345,50.0816471],[8.242603,50.0816423],[8.2425825,50.0816507],[8.2420449,50.0815663],[8.2420204,50.0815762],[8.2419778,50.0815325],[8.2419064,50.0815613],[8.2418859,50.0815403],[8.2417174,50.0816084],[8.2417738,50.0816661],[8.2416607,50.081712],[8.2415889,50.0816376],[8.2415272,50.0815818],[8.2417172,50.0813446],[8.2417436,50.0813109],[8.2418467,50.0811703],[8.2418551,50.0811045],[8.2419622,50.0811048],[8.2420489,50.0811028],[8.2420009,50.0812385],[8.2420341,50.08124],[8.2427179,50.0812632],[8.2436117,50.081274],[8.2436653,50.0813617],[8.2436472,50.0815007],[8.2436191,50.0816744],[8.2435999,50.0818606],[8.2435789,50.0820482],[8.2435746,50.0820935],[8.2435565,50.0822859],[8.2435533,50.0823769],[8.243471,50.082384],[8.2433995,50.0824181],[8.2432935,50.0824156],[8.2428368,50.0825839],[8.2428036,50.0825954],[8.2427699,50.0826071],[8.2427144,50.0825457],[8.2426493,50.0825324],[8.2425341,50.082406],[8.2425482,50.0823278],[8.2424754,50.0822374]]]}},{"type":"Feature","id":7683747,"properties":{"name":"Bahnhofsplatz","wikidata":null,"gender":"-","source":"wikidata","details":{"wikidata":"Q667121","person":false,"gender":null,"labels":{"en":{"language":"en","value":"Wiesbaden Central Station"},"de":{"language":"de","value":"Wiesbaden Hauptbahnhof"}},"descriptions":{"en":{"language":"en","value":"railway station in Mitte, Germany"},"de":{"language":"de","value":"Bahnhof in Wiesbaden"}},"nicknames":[],"birth":null,"death":null,"sitelinks":{"enwiki":{"site":"enwiki","title":"Wiesbaden Hauptbahnhof","badges":[],"url":"https:\/\/en.wikipedia.org\/wiki\/Wiesbaden_Hauptbahnhof"},"dewiki":{"site":"dewiki","title":"Wiesbaden Hauptbahnhof","badges":[],"url":"https:\/\/de.wikipedia.org\/wiki\/Wiesbaden_Hauptbahnhof"}},"image":"BD-HauptbahnhofWiesbaden-20130507-IMG 1754.jpg"}},"geometry":{"type":"MultiLineString","coordinates":[[[8.2437643,50.0712312],[8.2438166,50.0712437],[8.2438316,50.0712472],[8.2438759,50.0712578],[8.2438921,50.0712278],[8.2439394,50.0712393],[8.2440503,50.0712668],[8.2440828,50.0712118],[8.2441256,50.0711394],[8.2441934,50.0710246],[8.2443002,50.0710507],[8.2443798,50.0710702],[8.2443928,50.0710931],[8.2444468,50.0711062],[8.244483,50.0710939],[8.2445038,50.0710565],[8.2445305,50.0710624],[8.2445446,50.0710383],[8.2445519,50.071026],[8.2445726,50.070991],[8.2445857,50.0709689],[8.2445987,50.0709468],[8.2446301,50.0708938],[8.2446391,50.0708783],[8.2446993,50.0708919],[8.244811,50.0709194],[8.2450077,50.0709663],[8.245017,50.0709685],[8.2449884,50.0710234],[8.2449257,50.0711295],[8.2448943,50.0711318],[8.2448745,50.0711419],[8.2447573,50.0713535],[8.2447729,50.0713954],[8.2447552,50.0714219],[8.2447351,50.07145],[8.2447043,50.0714776],[8.2446472,50.0714984],[8.244582,50.0715155],[8.2445115,50.0715138],[8.2444247,50.071508],[8.2437929,50.0714679],[8.2434439,50.0714413],[8.2433201,50.0714324],[8.2428041,50.0713951],[8.2424306,50.0713682],[8.2423038,50.0713583],[8.2419821,50.0713365],[8.2419283,50.0713329],[8.2419223,50.0713122],[8.2419041,50.0712729],[8.2418766,50.0711926],[8.2419101,50.0711921],[8.2419446,50.0711908],[8.2419798,50.0711875],[8.2420246,50.0711799],[8.2420625,50.0711713],[8.24211,50.0711589],[8.2421361,50.0711487],[8.2421787,50.0711297],[8.2421998,50.0711186],[8.2422222,50.0711062],[8.2422467,50.0710908],[8.2422773,50.0710696],[8.2423102,50.0710397],[8.2423382,50.0710094],[8.2423552,50.0709865],[8.2423739,50.0709574],[8.2423887,50.0709252],[8.2423954,50.0708934],[8.2423987,50.0708577],[8.2423991,50.070823],[8.2424079,50.070823],[8.2424363,50.0708231],[8.2424355,50.0707721],[8.2424093,50.0706919],[8.2423698,50.0706198],[8.2423347,50.0705757],[8.2423093,50.0705553],[8.2423856,50.0705733],[8.2424573,50.0704482],[8.2424607,50.0704419],[8.2425334,50.0703148],[8.2423446,50.0702703],[8.2422393,50.0702443],[8.2422631,50.0701096],[8.2422731,50.0700698],[8.242312,50.0700729],[8.2423409,50.0700752],[8.2424613,50.0700795],[8.242495,50.0700696],[8.242561,50.0700503],[8.2426001,50.0701109],[8.2426334,50.0701315],[8.2428446,50.0701819],[8.2427962,50.0702678],[8.2427313,50.0703685],[8.2426651,50.0704882],[8.2425906,50.0706284],[8.2426577,50.0706432],[8.2426481,50.0706612],[8.2427855,50.0706914],[8.2427942,50.0706752],[8.2428298,50.0706831],[8.2430096,50.0707261],[8.2429514,50.0708252],[8.2429336,50.0708209],[8.2428918,50.070893],[8.2428513,50.0708831],[8.2428383,50.0708817],[8.2428274,50.0708825],[8.2428195,50.0708868],[8.2428142,50.0708917],[8.2427911,50.0709328],[8.2427896,50.0709406],[8.2427908,50.0709458],[8.2427997,50.0709525],[8.2428088,50.0709561],[8.2428494,50.0709662],[8.2430767,50.0710205],[8.2436012,50.0711479],[8.2435779,50.0711855],[8.2436363,50.0712006],[8.2436563,50.0712054],[8.2436969,50.0712151],[8.2437097,50.0712181],[8.2437643,50.0712312]]]}},{"type":"Feature","id":19805059,"properties":{"name":"Biebricher Allee","wikidata":"Q857117","gender":"-","source":"wikidata","details":{"wikidata":"Q656680","person":false,"gender":null,"labels":{"en":{"language":"en","value":"Biebrich"},"de":{"language":"de","value":"Biebrich"}},"descriptions":{"en":{"language":"en","value":"municipal district of the city of Wiesbaden in Hesse, Germany"},"de":{"language":"de","value":"Stadtteil von Wiesbaden"}},"nicknames":[],"birth":null,"death":null,"sitelinks":{"enwiki":{"site":"enwiki","title":"Biebrich (Wiesbaden)","badges":[],"url":"https:\/\/en.wikipedia.org\/wiki\/Biebrich_(Wiesbaden)"},"dewiki":{"site":"dewiki","title":"Wiesbaden-Biebrich","badges":[],"url":"https:\/\/de.wikipedia.org\/wiki\/Wiesbaden-Biebrich"}},"image":"Wiesbaden Castle.jpg"}},"geometry":{"type":"MultiLineString","coordinates":[[[8.2417977,50.0716412],[8.2412661,50.0715805]],[[8.2412661,50.0715805],[8.2407069,50.0715252],[8.2406049,50.0715056],[8.2405459,50.0714867],[8.2405074,50.0714691],[8.2404696,50.0714402]],[[8.2404696,50.0714402],[8.2404338,50.0714],[8.2403688,50.0713195]],[[8.2403688,50.0713195],[8.2403317,50.0712185],[8.2401658,50.0707966],[8.2401349,50.0707006]],[[8.2401349,50.0707006],[8.2400724,50.0705325],[8.240023,50.070357],[8.2400072,50.0703007]],[[8.2400072,50.0703007],[8.2400015,50.0702266]],[[8.2400015,50.0702266],[8.2399711,50.0700682]],[[8.2399711,50.0700682],[8.2399646,50.0699141]],[[8.2399646,50.0699141],[8.2399652,50.0698387],[8.2399675,50.0697687],[8.2399731,50.0697285]],[[8.2399731,50.0697285],[8.2399797,50.0696899],[8.2399897,50.0696227]],[[8.2399897,50.0696227],[8.2400248,50.0694637],[8.2400423,50.0694172],[8.2400551,50.0693831],[8.2400696,50.069344]],[[8.2400696,50.069344],[8.2401335,50.0691875],[8.2401907,50.0690526],[8.2402425,50.0689569]],[[8.2402425,50.0689569],[8.2402857,50.0687849],[8.2403997,50.0683533],[8.2406018,50.0675793],[8.2410176,50.0659758],[8.2413313,50.0647855],[8.2413848,50.0645805],[8.2414231,50.0644206],[8.2416081,50.0636869]],[[8.2416081,50.0636869],[8.2416364,50.0635735]],[[8.2416364,50.0635735],[8.2417676,50.0629794]],[[8.2417676,50.0629794],[8.2419012,50.0624837]],[[8.2419012,50.0624837],[8.2419454,50.0623021],[8.2419883,50.0621255]],[[8.2419883,50.0621255],[8.2419929,50.0621067],[8.2420889,50.0617122],[8.2420978,50.0616754],[8.2421223,50.0615732]],[[8.2421223,50.0615732],[8.2421403,50.061501]],[[8.2421403,50.061501],[8.2421672,50.0613901],[8.2421761,50.0613537],[8.2422194,50.0611757]],[[8.2424597,50.0610471],[8.2424256,50.0610738],[8.2423915,50.0610918],[8.2423048,50.0611286],[8.2422194,50.0611757]],[[8.2422194,50.0611757],[8.2422271,50.0611445],[8.2422385,50.0610984]],[[8.2422385,50.0610984],[8.24231,50.0608095],[8.2423459,50.0606734],[8.2424198,50.0604448]],[[8.2424198,50.0604448],[8.2423457,50.0604021],[8.2423198,50.06038],[8.2423018,50.0603562],[8.2423024,50.0603243],[8.2423612,50.0600932],[8.2423706,50.0599944],[8.2425757,50.0591538],[8.242664,50.0587816],[8.2427299,50.0585391],[8.242751,50.0584562],[8.2427788,50.0583451]],[[8.2427788,50.0583451],[8.2428897,50.0579017]],[[8.2428897,50.0579017],[8.2429965,50.0574355],[8.2430558,50.0571875],[8.2431146,50.0570258],[8.2431388,50.0570029],[8.2431737,50.0569869],[8.2432998,50.0569675]],[[8.2432998,50.0569675],[8.2433218,50.0568851]],[[8.2433218,50.0568851],[8.2433972,50.056614]],[[8.2433972,50.056614],[8.2434488,50.0563881]],[[8.2435921,50.0563541],[8.2434488,50.0563881]],[[8.2438095,50.0556986],[8.2436663,50.056291],[8.2436499,50.0563214],[8.243625,50.0563399],[8.2435921,50.0563541]],[[8.2436599,50.0555628],[8.2437613,50.0556268],[8.2437725,50.0556322],[8.2437977,50.055668],[8.2438095,50.0556986]],[[8.2432936,50.0576711],[8.2432251,50.0579829],[8.2431661,50.0581931],[8.243074,50.0585742],[8.242912,50.0592382],[8.2426094,50.0604973],[8.2424597,50.0610471],[8.2424448,50.0611145],[8.2424277,50.0611917],[8.2423848,50.0614082],[8.2423946,50.0614363],[8.2424089,50.0614636],[8.242437,50.0615006],[8.2424774,50.0615379]],[[8.2402425,50.0689569],[8.2402383,50.069069],[8.2402356,50.0692029],[8.2402354,50.0693523],[8.2402361,50.0693908],[8.2402324,50.0694903]],[[8.2402324,50.0694903],[8.2402312,50.0695888],[8.240228,50.0696819],[8.2402288,50.0697309]],[[8.2402288,50.0697309],[8.2402303,50.0698329]],[[8.2402303,50.0698329],[8.2402353,50.0699353]],[[8.2402353,50.0699353],[8.2402362,50.0700062]],[[8.2402362,50.0700062],[8.2402433,50.070256],[8.240244,50.0702793]],[[8.240244,50.0702793],[8.240248,50.0703878],[8.2402512,50.0704656],[8.240263,50.0705398],[8.2402846,50.0706485],[8.2403507,50.0708605]],[[8.2403507,50.0708605],[8.2404606,50.0711453],[8.2404732,50.0711643],[8.240484,50.0711816],[8.2405002,50.0711994],[8.2405117,50.0712119],[8.2405705,50.0712608],[8.2406486,50.0713167]],[[8.2432525,50.054525],[8.2430422,50.0540133],[8.2430539,50.05399],[8.24313,50.0538895]],[[8.2433674,50.0548097],[8.2432525,50.054525]],[[8.2434488,50.0563881],[8.2433356,50.0563272],[8.2433252,50.0563127],[8.243316,50.0562823],[8.2434893,50.0554897],[8.2435007,50.0553126],[8.2434942,50.0551988],[8.2434723,50.0550857],[8.2433787,50.0548381],[8.2433674,50.0548097]],[[8.2434488,50.0563881],[8.2435591,50.0559673],[8.2436599,50.0555628],[8.2436726,50.0554501],[8.2436693,50.0553432]],[[8.2436693,50.0553432],[8.2436601,50.0552447],[8.243645,50.0551464]],[[8.243645,50.0551464],[8.2436196,50.0550313],[8.2435862,50.0549169],[8.2435459,50.0548097]],[[8.2435459,50.0548097],[8.2435372,50.054788]],[[8.2435372,50.054788],[8.2434734,50.0546291],[8.2434087,50.0544708]],[[8.2434087,50.0544708],[8.243308,50.0542124]],[[8.243308,50.0542124],[8.2432365,50.0540823],[8.24313,50.0538895]],[[8.24313,50.0538895],[8.2429166,50.0534638]],[[8.2429166,50.0534638],[8.242634,50.0527415]],[[8.242634,50.0527415],[8.2426245,50.0527149]],[[8.2426245,50.0527149],[8.2424773,50.0523483],[8.2424466,50.0522714]],[[8.2424466,50.0522714],[8.242341,50.0520052],[8.2422762,50.0518376]],[[8.2422762,50.0518376],[8.2421355,50.0514958]],[[8.2421355,50.0514958],[8.2421067,50.0514284],[8.2420917,50.0513951],[8.242074,50.0513537],[8.2420281,50.0512357]],[[8.2420281,50.0512357],[8.2413,50.0494076]],[[8.2413,50.0494076],[8.2412335,50.0492503],[8.2411871,50.049141],[8.2411732,50.049102],[8.2411599,50.0490658],[8.2411376,50.0490088],[8.2410524,50.0487753]],[[8.2410524,50.0487753],[8.2409987,50.0486174],[8.2409743,50.0485047],[8.2409623,50.048448],[8.2409531,50.0483694],[8.2409383,50.0482371]],[[8.2409383,50.0482371],[8.2409305,50.0479974]],[[8.2409305,50.0479974],[8.2409291,50.047988],[8.2409289,50.0479669],[8.2409276,50.047888]],[[8.2409276,50.047888],[8.2409328,50.0477864]],[[8.243805,50.0550345],[8.2437923,50.0550582],[8.2437648,50.0550904],[8.243645,50.0551464]],[[8.2437061,50.0547762],[8.243799,50.054994],[8.243805,50.0550345]],[[8.2436981,50.0547527],[8.2437061,50.0547762]],[[8.2435815,50.0544306],[8.2436981,50.0547527]],[[8.2432829,50.0540944],[8.2434375,50.0541693],[8.2434719,50.0541954],[8.2434898,50.0542213],[8.2435815,50.0544306]],[[8.2430732,50.0534194],[8.2432516,50.0539866],[8.2432829,50.0540944]],[[8.2429975,50.053227],[8.2430732,50.0534194]],[[8.2429813,50.0531859],[8.2429975,50.053227]],[[8.2428822,50.0529343],[8.2429813,50.0531859]],[[8.242844,50.052837],[8.2428822,50.0529343]],[[8.2427946,50.052702],[8.242844,50.052837]],[[8.2426185,50.0522599],[8.2426411,50.0523216],[8.2427946,50.052702]],[[8.2424828,50.0519195],[8.2426185,50.0522599]],[[8.2423709,50.0516352],[8.2424828,50.0519195]],[[8.2422638,50.0513631],[8.2423052,50.0514683],[8.2423709,50.0516352]],[[8.2421053,50.0509743],[8.2421969,50.051193],[8.2422638,50.0513631]],[[8.2419725,50.0506318],[8.2420479,50.0508251],[8.2421053,50.0509743]],[[8.2414113,50.0492193],[8.2415753,50.049624],[8.2419725,50.0506318]],[[8.2413165,50.0489826],[8.2413387,50.0490356],[8.241355,50.0490746],[8.2414113,50.0492193]],[[8.2411174,50.0482487],[8.2411346,50.0483832],[8.2411702,50.0485249],[8.2412077,50.04866],[8.2412666,50.0488376],[8.2413165,50.0489826]],[[8.2411142,50.0482049],[8.2411174,50.0482487]],[[8.2411106,50.0479641],[8.2411142,50.0482049]],[[8.241108,50.0478605],[8.2411102,50.0479345],[8.2411106,50.0479641]],[[8.2410987,50.0477561],[8.241108,50.0478605]],[[8.2433218,50.0568851],[8.243416,50.0569258],[8.2434401,50.056945]],[[8.2434401,50.056945],[8.2434564,50.0569673],[8.243462,50.0570017],[8.2434402,50.057109],[8.2433592,50.057409],[8.2433444,50.0574263],[8.2433188,50.0574385]],[[8.2433188,50.0574385],[8.2431771,50.0574535]],[[8.2431283,50.0576564],[8.2431771,50.0574535]],[[8.2431771,50.0574535],[8.2432998,50.0569675]],[[8.2413165,50.0489826],[8.2411376,50.0490088]],[[8.2429975,50.053227],[8.2430026,50.0532893],[8.2429925,50.0533508],[8.2429635,50.0534098],[8.2429166,50.0534638]],[[8.2419454,50.0623021],[8.2420411,50.0623708],[8.2420933,50.0624677],[8.241931,50.0631609],[8.2418447,50.063507],[8.2417685,50.0638496],[8.2415796,50.0645991],[8.2414812,50.0649486],[8.2411956,50.0660035],[8.2409313,50.0670442],[8.2407088,50.0679104],[8.2406165,50.0682155],[8.2405543,50.0684796],[8.2404006,50.0691179],[8.2403893,50.0691407],[8.2403581,50.0691597],[8.2403095,50.0691777],[8.2402749,50.0691889],[8.2402356,50.0692029]],[[8.2400696,50.069344],[8.2400429,50.0693187],[8.23999,50.0692545],[8.2399831,50.069237],[8.2399845,50.0692171],[8.2400791,50.0688942],[8.2403379,50.0679631],[8.240418,50.0676633],[8.2405752,50.0670081],[8.2408656,50.0659486],[8.2409409,50.0656642],[8.2410152,50.0653516],[8.2411192,50.0649276],[8.2412126,50.0645613],[8.2412699,50.0643563],[8.2413265,50.06413],[8.2414031,50.0638431],[8.2414497,50.0636224],[8.2414755,50.063593],[8.2415171,50.0635748],[8.2416364,50.0635735]],[[8.2432829,50.0540944],[8.243308,50.0542124]],[[8.2424198,50.0604448],[8.2426167,50.0596821],[8.2428071,50.0589109],[8.2429011,50.0585541],[8.2429874,50.0582095],[8.2431283,50.0576564]],[[8.2404218,50.0715459],[8.2404379,50.0715894],[8.2404451,50.071638],[8.2404496,50.0716685]],[[8.2402571,50.0713724],[8.2402974,50.0714498],[8.2404218,50.0715459]],[[8.2402151,50.0712814],[8.2402291,50.0713257],[8.2402571,50.0713724]],[[8.243316,50.0565333],[8.2433442,50.0564184],[8.2433356,50.0563272]],[[8.2432831,50.0566952],[8.243303,50.0566049],[8.243316,50.0565333]],[[8.2431737,50.0569869],[8.2432302,50.0569093],[8.2432465,50.0568472],[8.2432831,50.0566952]],[[8.2430973,50.0569756],[8.2431569,50.0566391]],[[8.2428544,50.0578499],[8.2429531,50.0574294],[8.243013,50.0571826],[8.2430546,50.0570119],[8.2430766,50.0569872],[8.2430973,50.0569756]],[[8.2428299,50.0579356],[8.242841,50.0578984],[8.2428544,50.0578499]],[[8.2425254,50.0591052],[8.2426121,50.0587627],[8.2426729,50.058534],[8.2426957,50.0584484],[8.2427268,50.0583183],[8.2428299,50.0579356]],[[8.2425006,50.059206],[8.2425148,50.0591469],[8.2425254,50.0591052]],[[8.2423214,50.0599306],[8.2425006,50.059206]],[[8.2422884,50.0600385],[8.2423047,50.059986],[8.2423214,50.0599306]],[[8.2422537,50.0604201],[8.2422216,50.0603949],[8.2421674,50.0603856],[8.2422884,50.0600385]],[[8.2422086,50.0606284],[8.2422537,50.0604201]],[[8.2421904,50.0606868],[8.2422008,50.0606541],[8.2422086,50.0606284]],[[8.2419809,50.0614102],[8.2419828,50.0613729],[8.2419942,50.0612522],[8.2420513,50.0610575],[8.2421265,50.0608616],[8.2421904,50.0606868]],[[8.2419622,50.061687],[8.2419686,50.0616619],[8.2419838,50.0615599],[8.2419892,50.0614911],[8.2419809,50.0614102]],[[8.2418663,50.0617784],[8.2419446,50.0617404],[8.2419622,50.061687]],[[8.2415777,50.0629121],[8.2417866,50.0620915],[8.2418663,50.0617784]],[[8.2415542,50.0630094],[8.241566,50.0629582],[8.2415777,50.0629121]],[[8.2414205,50.0635873],[8.2415542,50.0630094]],[[8.2414497,50.0636224],[8.2414205,50.0635873]],[[8.2431685,50.0534746],[8.2431859,50.0535468],[8.2432028,50.0535842],[8.2432713,50.0536611],[8.2433478,50.0537341]],[[8.2431588,50.0533329],[8.2431501,50.0533982],[8.2431685,50.0534746]],[[8.2431588,50.0533329],[8.243213,50.0533772],[8.2432281,50.0534135]],[[8.2432281,50.0534135],[8.2433297,50.0536567],[8.2433478,50.0537341]],[[8.2433478,50.0537341],[8.2434368,50.0539618],[8.2435296,50.054186]],[[8.2435296,50.054186],[8.2435896,50.0543073],[8.243634,50.0544212]],[[8.243634,50.0544212],[8.2437597,50.0547443]],[[8.2437597,50.0547443],[8.2437674,50.054764]],[[8.2437061,50.0547762],[8.2437674,50.054764]],[[8.2436589,50.0547856],[8.2437061,50.0547762]],[[8.2434213,50.0548293],[8.2435459,50.0548097],[8.2436589,50.0547856]],[[8.2433787,50.0548381],[8.2434213,50.0548293]],[[8.2433167,50.054848],[8.2433787,50.0548381]],[[8.2433167,50.054848],[8.2433045,50.0548199]],[[8.2433045,50.0548199],[8.2431907,50.0545404]],[[8.2431907,50.0545404],[8.243106,50.0543465],[8.2429828,50.054026]],[[8.2429828,50.054026],[8.242955,50.0539434],[8.2428217,50.0535911],[8.2428293,50.0535697]],[[8.2430539,50.05399],[8.2430618,50.0539193],[8.2430519,50.0538763],[8.2429206,50.0536144],[8.2428709,50.0535867],[8.2428293,50.0535697]],[[8.2428293,50.0535697],[8.2428043,50.0534852],[8.2427836,50.0534405]],[[8.2427836,50.0534405],[8.2427381,50.053316],[8.2424865,50.0527102]],[[8.2424865,50.0527102],[8.2423214,50.0522924]],[[8.2423214,50.0522924],[8.2422236,50.0520564]],[[8.2422236,50.0520564],[8.2422109,50.0520258],[8.2421994,50.0520004]],[[8.2421994,50.0520004],[8.2421013,50.0517835],[8.2420899,50.0517201],[8.241965,50.0514213],[8.2419204,50.0513074]],[[8.2419204,50.0513074],[8.2418983,50.0512537],[8.2418666,50.0511764]],[[8.2418666,50.0511764],[8.2418959,50.0511225],[8.2418583,50.0510226],[8.2417886,50.0508581],[8.24168,50.0505929],[8.241275,50.0495603],[8.2412508,50.0495173],[8.2412245,50.0495017]],[[8.2418666,50.0511764],[8.2412032,50.0495551],[8.2412245,50.0495017]],[[8.2434443,50.0552708],[8.2434481,50.0551977],[8.243388,50.0550324],[8.2433167,50.054848]],[[8.2434318,50.0553765],[8.2434426,50.0553101],[8.2434443,50.0552708]],[[8.243181,50.0565646],[8.243277,50.0562263],[8.2433978,50.0556564],[8.2434214,50.0554583],[8.2434318,50.0553765]],[[8.2437674,50.054764],[8.2438504,50.0549912],[8.2438766,50.0550612],[8.2438905,50.0553241]],[[8.2438905,50.0553241],[8.2438922,50.0553609]],[[8.2438922,50.0553609],[8.2438897,50.0553933]],[[8.2438897,50.0553933],[8.2438894,50.0555172],[8.2438704,50.0557131],[8.2437103,50.0563459],[8.2436948,50.0563588],[8.2436273,50.0566092]],[[8.2436273,50.0566092],[8.243619,50.05664],[8.2436117,50.0566731]],[[8.2436117,50.0566731],[8.243545,50.0569745],[8.2435118,50.0571255],[8.2434384,50.057416]],[[8.2433786,50.0576355],[8.2434384,50.057416]],[[8.2433474,50.0577511],[8.2433661,50.0576796],[8.2433786,50.0576355]],[[8.2429807,50.0591905],[8.2431361,50.0585789],[8.2432201,50.0581987],[8.2432817,50.0579865],[8.2433474,50.0577511]],[[8.2429599,50.0592896],[8.2429707,50.0592428],[8.2429807,50.0591905]],[[8.2426732,50.0604414],[8.2429599,50.0592896]],[[8.2426362,50.0605518],[8.2426562,50.060502],[8.2426732,50.0604414]],[[8.2424646,50.0614645],[8.2424276,50.0614096],[8.2424793,50.0611983],[8.2426362,50.0605518]],[[8.2424448,50.0611145],[8.2423453,50.0611901],[8.2423295,50.0612098],[8.2422897,50.0613588]],[[8.2422897,50.0613588],[8.2422833,50.061401],[8.2422635,50.0615108],[8.2422633,50.061587],[8.24226,50.0616667]],[[8.24226,50.0616667],[8.2423296,50.0617434],[8.2422291,50.0621502]],[[8.2422291,50.0621502],[8.2422226,50.0621766]],[[8.2422226,50.0621766],[8.2422346,50.0622152]],[[8.2422346,50.0622152],[8.2418328,50.0638025]],[[8.2418328,50.0638025],[8.241828,50.0638546],[8.2418153,50.0639291]],[[8.2418153,50.0639291],[8.2416345,50.0646052],[8.2415661,50.0648611],[8.2415809,50.0648863]],[[8.2415809,50.0648863],[8.2415686,50.064958],[8.2415445,50.0650306]],[[8.2415445,50.0650306],[8.2415154,50.0650567],[8.2414837,50.0651225],[8.2412838,50.0659245],[8.241302,50.0659518]],[[8.241302,50.0659518],[8.2412889,50.0660086],[8.2412777,50.0660663]],[[8.2412777,50.0660663],[8.2412453,50.0660944],[8.2412183,50.0661456],[8.2410035,50.0669852],[8.241017,50.0670078]],[[8.241017,50.0670078],[8.2410057,50.0670511],[8.2409927,50.0671058]],[[8.2409927,50.0671058],[8.2409677,50.0671383],[8.2409495,50.0671955],[8.2408049,50.0677803],[8.240829,50.0678152]],[[8.240829,50.0678152],[8.2407983,50.0679174],[8.2407725,50.0680014]],[[8.2407725,50.0680014],[8.2407339,50.0680386],[8.2407071,50.068131],[8.24068,50.0682231],[8.2406097,50.0684846],[8.2404405,50.0691216],[8.2404249,50.0691728],[8.2403937,50.0691967]],[[8.2403937,50.0691967],[8.2403511,50.0693903]],[[8.2403511,50.0693903],[8.2402361,50.0693908],[8.2400551,50.0693831],[8.23995,50.0693719]],[[8.23987,50.0696408],[8.2399269,50.0694495],[8.23995,50.0693719]],[[8.2398268,50.0701013],[8.2398159,50.0700764],[8.2397944,50.070055],[8.2397324,50.0700267],[8.2396628,50.0699625],[8.2396461,50.0699198],[8.2396437,50.0698563],[8.239649,50.0698137],[8.2396544,50.0697915],[8.2396627,50.0697737],[8.2396748,50.0697519],[8.2396943,50.0697294],[8.2397217,50.0697027],[8.239741,50.0696874],[8.2397747,50.0696692],[8.2398096,50.0696548],[8.23987,50.0696408]],[[8.2399201,50.0703155],[8.2398997,50.0702648],[8.2398468,50.0701479],[8.2398268,50.0701013]],[[8.2402024,50.071243],[8.2402159,50.0712065],[8.240106,50.0708602],[8.2399201,50.0703155]],[[8.23995,50.0693719],[8.2399634,50.069305]],[[8.2399634,50.069305],[8.23999,50.0692545]],[[8.2399634,50.069305],[8.2399284,50.0692322],[8.2400093,50.0689253]],[[8.2400093,50.0689253],[8.2400163,50.0688859],[8.2400284,50.0688262]],[[8.2400284,50.0688262],[8.2402578,50.0680076]],[[8.2402578,50.0680076],[8.2402746,50.0679552],[8.2403067,50.0678913]],[[8.2403067,50.0678913],[8.240355,50.0677011],[8.240365,50.0676567],[8.2403798,50.0676003],[8.2405148,50.0670527]],[[8.2405148,50.0670527],[8.2405254,50.067003],[8.2405396,50.0669484]],[[8.2405396,50.0669484],[8.240789,50.0660063]],[[8.240789,50.0660063],[8.2408023,50.0659437],[8.2408166,50.0658895]],[[8.2408166,50.0658895],[8.2408776,50.0656567],[8.2409589,50.0653464],[8.2410549,50.0649533]],[[8.2410549,50.0649533],[8.2410639,50.0649218],[8.2410801,50.0648662]],[[8.2410801,50.0648662],[8.2411566,50.0645555],[8.2412089,50.0643481],[8.2412688,50.0641232],[8.241332,50.0638859]],[[8.241332,50.0638859],[8.241344,50.0638355],[8.241358,50.0637737]],[[8.241358,50.0637737],[8.241394,50.0636152],[8.2414205,50.0635873]],[[8.2416345,50.0646052],[8.2415796,50.0645991],[8.2415118,50.0645926]],[[8.2415118,50.0645926],[8.2413848,50.0645805],[8.2412671,50.0645687]],[[8.2412671,50.0645687],[8.2412126,50.0645613],[8.2411566,50.0645555]],[[8.2403041,50.0713726],[8.2402829,50.0713233],[8.2403317,50.0712185]],[[8.2404549,50.0715449],[8.240377,50.071471],[8.240331,50.0714322],[8.2403041,50.0713726]],[[8.2403641,50.0717602],[8.2404496,50.0716685],[8.240454,50.0716388],[8.2404599,50.0715889],[8.2404549,50.0715449]],[[8.240316,50.0699521],[8.2403174,50.0702778],[8.2403497,50.0704965],[8.2404248,50.0707651],[8.2405642,50.0710836],[8.2406091,50.0711684],[8.2406146,50.0712137]],[[8.2403148,50.0698746],[8.2403163,50.0699061],[8.240316,50.0699521]],[[8.2403221,50.0698429],[8.2403121,50.0698509],[8.2403148,50.0698746]],[[8.240359,50.0698172],[8.2403221,50.0698429]],[[8.2403933,50.0697971],[8.240359,50.0698172]],[[8.2404013,50.0695278],[8.2403933,50.0697971]],[[8.2403921,50.0694547],[8.2404008,50.0694937],[8.2404013,50.0695278]],[[8.2403511,50.0693903],[8.2403921,50.0694547]],[[8.241208,50.0479158],[8.2411842,50.0479508]],[[8.2411842,50.0479508],[8.2411763,50.0479734],[8.2411731,50.0479931],[8.2411717,50.0481929]],[[8.2411717,50.0481929],[8.2411781,50.0482583],[8.2411809,50.0482871]],[[8.2411809,50.0482871],[8.2411968,50.0483832],[8.2412224,50.0484392],[8.2413034,50.0486477],[8.2413639,50.0488026],[8.2414064,50.0489076]],[[8.2414064,50.0489076],[8.2414482,50.0489657]],[[8.2414482,50.0489657],[8.2414773,50.0490139]],[[8.2414773,50.0490139],[8.2414965,50.0490547],[8.2419692,50.05026],[8.2421933,50.0508076],[8.2423825,50.05131],[8.2423952,50.0513367],[8.2424642,50.0514259],[8.2424654,50.0514513]],[[8.2424654,50.0514513],[8.242468,50.0515093],[8.242469,50.0515287],[8.2424942,50.0515832],[8.2425134,50.0516486],[8.2425691,50.0517835],[8.2425904,50.051838]],[[8.2425904,50.051838],[8.242611,50.051914],[8.2426462,50.0520445],[8.2427313,50.0522602]],[[8.2427313,50.0522602],[8.2429031,50.0526813]],[[8.2429031,50.0526813],[8.2429596,50.0528303]],[[8.2429596,50.0528303],[8.2429701,50.0528591],[8.2429834,50.0528959]],[[8.2429834,50.0528959],[8.2430481,50.0530257]],[[8.2430481,50.0530257],[8.2430692,50.0530658],[8.2430929,50.0531179]],[[8.2430929,50.0531179],[8.2431162,50.0531751],[8.2431588,50.0533329]],[[8.243469,50.0566864],[8.2434314,50.0568228],[8.2434206,50.0568676],[8.2434401,50.056945]],[[8.2435052,50.0565486],[8.2434892,50.0566243],[8.243469,50.0566864]],[[8.2435921,50.0563541],[8.243537,50.0564205],[8.2435052,50.0565486]],[[8.2403893,50.0691407],[8.2403937,50.0691967]],[[8.2398268,50.0701013],[8.2398386,50.0700567],[8.239842,50.0698662],[8.23987,50.0696408]],[[8.2408083,50.0480229],[8.2408057,50.0479832]],[[8.2408259,50.0482564],[8.2408231,50.0482324],[8.2408083,50.0480229]],[[8.2407606,50.048316],[8.2407738,50.0483049],[8.2408135,50.0482839],[8.2408259,50.0482564]],[[8.2407428,50.0483433],[8.2407606,50.048316]],[[8.2407305,50.0483655],[8.2407428,50.0483433]],[[8.2408255,50.048604],[8.240768,50.0484649],[8.2407305,50.0483655]],[[8.2409433,50.0488492],[8.2409088,50.0488124],[8.2408389,50.0486364],[8.2408255,50.048604]],[[8.241139,50.0493468],[8.2410499,50.0491217],[8.2410354,50.0490768],[8.241003,50.0489905],[8.2409716,50.0489481],[8.2409416,50.0488913],[8.2409433,50.0488492]],[[8.2412245,50.0495017],[8.2411797,50.0494279],[8.241139,50.0493468]],[[8.2418726,50.061604],[8.2418865,50.0615485],[8.2418907,50.0615299],[8.2418947,50.0615122],[8.2419005,50.0614863],[8.2419188,50.0614092]],[[8.2418663,50.0617784],[8.2418949,50.0616542],[8.2418726,50.061604]],[[8.2423666,50.0614651],[8.2423511,50.0615201],[8.2423456,50.0615368],[8.2423404,50.0615557],[8.24233,50.0615954],[8.2423136,50.0616536]],[[8.2423252,50.0614049],[8.2423666,50.0614651]],[[8.2409433,50.0488492],[8.2409652,50.048824],[8.240913,50.048655]],[[8.240913,50.048655],[8.2409057,50.0486283],[8.2408963,50.0485912]],[[8.2437648,50.0550904],[8.243754,50.0551356],[8.2437513,50.0551984],[8.2437634,50.055292]],[[8.2437634,50.055292],[8.2437653,50.0553493],[8.2437645,50.0554341]],[[8.2437645,50.0554341],[8.243754,50.0555622],[8.2437725,50.0556322]],[[8.2410499,50.0491217],[8.2411732,50.049102],[8.241355,50.0490746],[8.2414965,50.0490547]],[[8.241965,50.0514213],[8.2420917,50.0513951],[8.2422638,50.0513631],[8.2423952,50.0513367]],[[8.2422537,50.0604201],[8.2423018,50.0603562]]]}}]}